{{Infobox Planet  
| name = 868 Lova
| image = 
| caption = 
| discovery=yes | physical_characteristics = yes | bgcolour=#FFFFC0
| discovery_ref = 
| discoverer = [[马克斯·沃夫|马克斯·沃夫]]
| discovery_site = [[海德堡|海德堡]]
| discovered =  1917年4月26日
| mp_name = 868
| alt_names = 1917 BU
| named_after = 
| mp_category=[[小行星带|主带小行星]]
| orbit_ref = <ref>[http://ssd.jpl.nasa.gov/sbdb.cgi?sstr=868 868 Lova (1917 BU)]</ref>
| epoch = 2013年4月18日
| semimajor= 2.301577375508901AU
| perihelion= 2.703594372479069AU
| aphelion= 3.105611369449238[[天文单位|AU]]
| eccentricity =0.1486972310130745				
| period = 1623.718457632975[[日|地球日]]<br>4.45[[年|地球年]] 
| inclination=5.836039930220725[[角度|°]]
| asc_node=115.8062623325381°
| arg_peri=287.6557541892958°	
| mean_anomaly=6.855284880612047°
| avg_speed=
 | dimensions= 52.47千米
 | mass=
 | density=
 | surface_grav=
 | escape_velocity=
 | rotation=41.3小时
 | spectral_type=[[C-型小行星|C型]]
 | magnitude=
 | abs_magnitude=10.22
 | albedo=0.0524
 | single_temperature=
}}
'''小行星868'''（'''868 Lova'''），是由[[德国|德国]][[天文学家|天文学家]][[马克斯·沃夫|马克斯·沃夫]]于1917年4月26日在德国[[海德堡|海德堡]][[王座山天文台|王座山天文台]]发现的[[小行星带|主带]][[小行星|小行星]]。

小行星868的命名依据不明。

== 参考资料 ==
{{Reflist}}

{{Minor Planet Number|(867)[[小行星867|小行星867]]|(869)[[小行星869|小行星869]]}}

[[Category:小行星带天体|Category:小行星带天体]]
[[Category:1917年发现的小行星|Category:1917年发现的小行星]]
[[Category:马克斯·沃夫发现的天体|Category:马克斯·沃夫发现的天体]]
[[Category:C-型小行星|Category:C-型小行星]]